[{"OBJECT_NAME":"STARLINK-33562","OBJECT_ID":"2024-220Q","EPOCH":"2026-03-09T16:45:19.651104","MEAN_MOTION":15.27588869,"ECCENTRICITY":0.00019124,"INCLINATION":43.0044,"RA_OF_ASC_NODE":205.402,"ARG_OF_PERICENTER":282.2757,"MEAN_ANOMALY":77.7881,"EPHEMERIS_TYPE":0,"CLASSIFICATION_TYPE":"U","NORAD_CAT_ID":62102,"ELEMENT_SET_NO":999,"REV_AT_EPOCH":7302,"BSTAR":0.0011884904,"MEAN_MOTION_DOT":0.00032596,"MEAN_MOTION_DDOT":0},{"OBJECT_NAME":"AL MUNTHER","OBJECT_ID":"2025-052AG","EPOCH":"2026-03-09T15:29:23.207136","MEAN_MOTION":15.28381521,"ECCENTRICITY":0.0008027,"INCLINATION":97.4001,"RA_OF_ASC_NODE":323.9152,"ARG_OF_PERICENTER":130.7043,"MEAN_ANOMALY":229.4895,"EPHEMERIS_TYPE":0,"CLASSIFICATION_TYPE":"U","NORAD_CAT_ID":63240,"ELEMENT_SET_NO":999,"REV_AT_EPOCH":5479,"BSTAR":0.00065015,"MEAN_MOTION_DOT":0.00017933,"MEAN_MOTION_DDOT":0}]
